OBJECT_NAME,OBJECT_ID,EPOCH,MEAN_MOTION,ECCENTRICITY,INCLINATION,RA_OF_ASC_NODE,ARG_OF_PERICENTER,MEAN_ANOMALY,EPHEMERIS_TYPE,CLASSIFICATION_TYPE,NORAD_CAT_ID,ELEMENT_SET_NO,REV_AT_EPOCH,BSTAR,MEAN_MOTION_DOT,MEAN_MOTION_DDOT
GPS BIIR-5  (PRN 22),2000-040A,2026-07-21T04:58:27.811776,2.00557995,.01203532,54.8479,213.8108,302.8221,64.5906,0,U,26407,999,19063,0,.72E-6,0
GPS BIIR-8  (PRN 16),2003-005A,2026-07-21T00:34:26.060736,2.00558800,.01484146,54.8784,213.6243,53.1925,318.0536,0,U,27663,999,17199,0,.71E-6,0
GPS BIIR-11 (PRN 19),2004-009A,2026-07-21T06:49:33.525984,2.00553607,.01173639,54.8016,274.3079,174.5933,177.1682,0,U,28190,999,16362,0,-.47E-6,0
GPS BIIR-13 (PRN 02),2004-045A,2026-07-21T04:46:05.855232,2.00557466,.01702973,55.1141,323.5263,317.2032,37.8025,0,U,28474,999,15910,0,-.11E-5,0
GPS BIIRM-1 (PRN 17),2005-038A,2026-07-21T05:45:21.684384,2.00563407,.01283179,54.8508,271.8014,296.4937,52.9961,0,U,28874,999,15251,0,-.42E-6,0
INMARSAT 4-F2 (SOUTHPAN/PRN 122),2005-044A,2026-07-21T06:55:15.521376,1.00273562,.00028433,5.1394,43.6869,60.7708,81.9032,0,U,28899,999,7586,0,-.262E-5,0
GPS BIIRM-2 (PRN 31),2006-042A,2026-07-20T21:53:37.194720,2.00567963,.01073436,54.7131,150.0000,55.3231,316.6702,0,U,29486,999,14507,0,.32E-6,0
GPS BIIRM-3 (PRN 12),2006-052A,2026-07-20T19:46:20.303040,2.00560059,.00847446,54.9318,212.6728,91.0099,269.9903,0,U,29601,999,14408,0,.69E-6,0
GPS BIIRM-4 (PRN 15),2007-047A,2026-07-20T03:10:50.032128,2.00553782,.01679521,54.1195,78.7075,88.1073,273.8731,0,U,32260,999,13747,0,-.64E-6,0
COSMOS 2433 (720),2007-052A,2026-07-21T04:06:53.604864,2.13104045,.00037192,65.5556,314.7897,203.8397,156.1614,0,U,32275,999,14578,0,-.87E-6,0
COSMOS 2432 (719),2007-052B,2026-07-21T05:55:21.264096,2.13103020,.00073749,65.5714,314.9158,320.9120,40.6285,0,U,32276,999,14581,0,-.88E-6,0
GPS BIIRM-5 (PRN 29),2007-062A,2026-07-20T10:55:23.759040,2.00561991,.00360667,55.0052,272.8137,167.9290,193.1150,0,U,32384,999,13618,0,-.47E-6,0
COSMOS 2434 (721),2007-065A,2026-07-20T14:30:49.866048,2.13101204,.00012344,64.3202,190.7886,328.2500,206.6629,0,U,32393,999,14448,0,.86E-6,0
COSMOS 2436 (723),2007-065C,2026-07-20T09:15:29.772000,2.13100001,.00173232,64.3289,190.8685,353.6543,145.4326,0,U,32395,999,14443,0,.84E-6,0
GPS BIIRM-6 (PRN 07),2008-012A,2026-07-21T00:54:28.211328,2.00573350,.02117314,54.5004,148.5724,248.2063,109.5080,0,U,32711,999,13443,0,.28E-6,0
GPS BIIRM-8 (PRN 05),2009-043A,2026-07-21T06:28:14.107872,2.00552573,.00536568,56.2317,26.1144,84.6576,89.8280,0,U,35752,999,12404,0,-.87E-6,0
COSMOS 2456 (730),2009-070A,2026-07-21T05:32:37.364064,2.13103471,.00034558,65.0317,69.8112,344.0755,109.6036,0,U,36111,999,12915,0,-.53E-6,0
COSMOS 2457 (733),2009-070B,2026-07-20T05:40:29.774208,2.13100985,.00043031,65.0165,69.6883,122.0917,55.7210,0,U,36112,999,12913,0,-.51E-6,0
COSMOS 2460 (732),2010-007C,2026-07-19T13:58:51.260736,2.13101428,.00018585,65.3996,313.3704,149.6273,248.4791,0,U,36402,999,12742,0,-.79E-6,0
GPS BIIF-1  (PRN 25),2010-022A,2026-07-20T08:40:31.255104,2.00564074,.01268565,54.2682,207.2257,66.1603,292.7704,0,U,36585,999,11825,0,.68E-6,0
BEIDOU-2 IGSO-1 (C06),2010-036A,2026-07-19T14:08:33.404064,1.00262639,.00586524,54.3073,162.6674,225.1805,228.5775,0,U,36828,999,5842,0,-.97E-6,0
BEIDOU-2 G4 (C04),2010-057A,2026-07-20T20:43:57.305280,1.00272843,.00053534,3.7289,68.7401,185.2694,155.5497,0,U,37210,999,5762,0,-.115E-5,0
BEIDOU-2 IGSO-2 (C07),2010-068A,2026-07-19T20:07:19.149312,1.00272665,.00570323,47.4862,271.4234,214.1385,222.1771,0,U,37256,999,5712,0,-.205E-5,0
BEIDOU-2 IGSO-3 (C08),2011-013A,2026-07-20T11:54:48.647232,1.00259464,.00357915,62.4540,39.8354,183.4623,359.8458,0,U,37384,999,5599,0,-.175E-5,0
GSAT-8 (GAGAN/PRN 127),2011-022A,2026-07-21T04:47:15.923040,1.00271458,.0002508,2.2168,81.4104,151.8692,192.5738,0,U,37605,999,5355,0,.84E-6,0
BEIDOU-2 IGSO-4 (C09),2011-038A,2026-07-20T22:56:02.094720,1.00278607,.01601312,54.6049,165.3724,231.4816,340.2900,0,U,37763,999,5498,0,-.24E-6,0
GSAT0101 (GALILEO-PFM),2011-060A,2026-07-17T22:29:50.024256,1.70475655,.0002114,56.9832,340.9281,62.8592,297.1517,0,U,37846,999,9164,0,-.105E-5,0
GSAT0102 (GALILEO-FM2),2011-060B,2026-07-21T02:01:35.103648,1.70476022,.00019941,56.9829,340.8434,5.4118,171.6653,0,U,37847,999,9170,0,-.107E-5,0
COSMOS 2476 (744),2011-064A,2026-07-18T04:11:02.956128,2.13103618,.00220678,65.2874,71.8256,235.6441,301.3919,0,U,37867,999,11442,0,-.32E-6,0
COSMOS 2477 (745),2011-064B,2026-07-21T05:42:02.867616,2.13102816,.00190656,65.2960,71.8019,236.4863,310.7777,0,U,37868,999,11448,0,-.53E-6,0
COSMOS 2475 (743),2011-064C,2026-07-19T09:54:59.368032,2.13101651,.00245691,65.3016,71.8854,250.6224,292.0479,0,U,37869,999,11445,0,-.44E-6,0
